     3.03           N: GNSS NAV DATA    M: Mixed            RINEX VERSION / TYPE
RTKCONV 2.4.3 b34                       20241006 053104 UTC PGM / RUN BY / DATE 
format: RTCM 3                                              COMMENT             
log: D:\Documents\Research\RTKinGSS\Expriment\Base\0928baserCOMMENT             
                                                            END OF HEADER       
G22 2024 09 27 22 00 00 -.659846700728D-04 -.352429196937D-11  .000000000000D+00
      .610000000000D+02  .175000000000D+02  .505735351622D-08 -.102484677474D+01
      .927597284317D-06  .140591759700D-01  .570341944695D-05  .515368157005D+04
      .511200000000D+06 -.197440385818D-06 -.211511161210D+01 -.115483999252D-06
      .960274739595D+00  .271062500000D+03 -.111122406614D+01 -.847749597888D-08
     -.389301930274D-10  .100000000000D+01  .233300000000D+04  .000000000000D+00
      .200000000000D+01  .000000000000D+00 -.111758708954D-07  .610000000000D+02
      .538139000000D+06  .400000000000D+01
C20 2024 09 28 03 00 00 -.944528612308D-03  .946975831084D-11  .000000000000D+00
      .100000000000D+01 -.739531250000D+02  .361765068967D-08  .239637213962D+01
     -.369269400835D-05  .558513100259D-03  .340025871992D-05  .528263007164D+04
      .529200000000D+06  .111758708954D-07  .144038932079D+01  .884756445885D-08
      .979525783306D+00  .301093750000D+03  .142737807911D+00 -.694064624863D-08
     -.157149403046D-09  .000000000000D+00  .977000000000D+03  .000000000000D+00
      .200000000000D+01  .000000000000D+00  .121000000000D-07  .121000000000D-07
      .538125000000D+06  .100000000000D+01
E26 1999 08 29 00 00 00  .000000000000D+00  .000000000000D+00  .000000000000D+00
      .000000000000D+00  .000000000000D+00  .000000000000D+00  .000000000000D+00
      .000000000000D+00  .000000000000D+00  .000000000000D+00  .000000000000D+00
      .000000000000D+00  .000000000000D+00  .000000000000D+00  .000000000000D+00
      .000000000000D+00  .000000000000D+00  .000000000000D+00  .000000000000D+00
      .000000000000D+00  .258000000000D+03  .102500000000D+04  .000000000000D+00
      .000000000000D+00  .160000000000D+02  .000000000000D+00  .000000000000D+00
      .791616539000D+09  .000000000000D+00
G23 2024 09 28 06 00 00  .329850707203D-03  .829913915368D-11  .000000000000D+00
      .114000000000D+03  .721875000000D+01  .430053627746D-08 -.455521159610D+00
      .195577740669D-06  .472170300782D-02  .306405127048D-05  .515360799599D+04
      .540000000000D+06  .102445483208D-06  .909160427255D+00 -.931322574615D-08
      .980870191855D+00  .333718750000D+03 -.294543297903D+01 -.822177104119D-08
     -.521450291926D-10  .100000000000D+01  .233300000000D+04  .000000000000D+00
      .200000000000D+01  .000000000000D+00 -.838190317154D-08  .626000000000D+03
      .538140000000D+06  .400000000000D+01
C21 2024 09 28 05 00 00 -.926809152588D-03  .341415784533D-11  .000000000000D+00
      .100000000000D+01 -.857500000000D+02  .354157609229D-08  .130819162844D+01
     -.410666689277D-05  .446357880719D-03  .320654362440D-05  .528262871742D+04
      .536400000000D+06 -.908039510250D-07  .144128017792D+01  .689178705215D-07
      .978809348435D+00  .306093750000D+03 -.102396147816D+00 -.687350059460D-08
     -.201794119821D-09  .000000000000D+00  .977000000000D+03  .000000000000D+00
      .200000000000D+01  .000000000000D+00  .111000000000D-07  .111000000000D-07
      .538126000000D+06  .100000000000D+01
E27 1999 08 29 00 00 00  .000000000000D+00  .000000000000D+00  .000000000000D+00
      .000000000000D+00  .000000000000D+00  .000000000000D+00  .000000000000D+00
      .000000000000D+00  .000000000000D+00  .000000000000D+00  .000000000000D+00
      .000000000000D+00  .000000000000D+00  .000000000000D+00  .000000000000D+00
      .000000000000D+00  .000000000000D+00  .000000000000D+00  .000000000000D+00
      .000000000000D+00  .258000000000D+03  .102500000000D+04  .000000000000D+00
      .000000000000D+00  .160000000000D+02  .000000000000D+00  .000000000000D+00
      .791616540000D+09  .000000000000D+00
G24 2024 09 28 05 59 44 -.486118718982D-03  .682121026330D-12  .000000000000D+00
      .200000000000D+01 -.171875000000D+01  .494949188049D-08  .802376092814D+00
     -.126659870148D-06  .160018251045D-01  .107474625111D-04  .515370223236D+04
      .539984000000D+06 -.257045030594D-06  .293197518892D+01  .353902578354D-07
      .934510771428D+00  .161468750000D+03  .101200411536D+01 -.837642034010D-08
      .169292766009D-09  .100000000000D+01  .233300000000D+04  .000000000000D+00
      .200000000000D+01  .000000000000D+00  .232830643654D-08  .200000000000D+01
      .538141000000D+06  .400000000000D+01
C22 2024 09 28 05 00 00  .135940616019D-03  .110267350806D-10  .000000000000D+00
      .100000000000D+01 -.837343750000D+02  .359336396375D-08  .116087066935D+01
     -.411085784435D-05  .637140241452D-03  .346126034856D-05  .528262918854D+04
      .536400000000D+06 -.745058059692D-08  .144120531162D+01 -.530853867531D-07
      .978818749147D+00  .304484375000D+03  .825673019338D+00 -.690778773709D-08
     -.267153985179D-09  .000000000000D+00  .977000000000D+03  .000000000000D+00
      .200000000000D+01  .000000000000D+00  .136000000000D-07  .136000000000D-07
      .538127000000D+06  .100000000000D+01
E28 1999 08 29 00 00 00  .000000000000D+00  .000000000000D+00  .000000000000D+00
      .000000000000D+00  .000000000000D+00  .000000000000D+00  .000000000000D+00
      .000000000000D+00  .000000000000D+00  .000000000000D+00  .000000000000D+00
      .000000000000D+00  .000000000000D+00  .000000000000D+00  .000000000000D+00
      .000000000000D+00  .000000000000D+00  .000000000000D+00  .000000000000D+00
      .000000000000D+00  .258000000000D+03  .102500000000D+04  .000000000000D+00
      .000000000000D+00  .160000000000D+02  .000000000000D+00  .000000000000D+00
      .791616541000D+09  .000000000000D+00
G25 2024 09 28 06 00 00  .499621499330D-03  .000000000000D+00  .000000000000D+00
      .800000000000D+01  .236250000000D+02  .523771817199D-08 -.989889422673D+00
      .154413282871D-05  .118016602937D-01  .530667603016D-05  .515372186661D+04
      .540000000000D+06  .428408384323D-07 -.222435291307D+01  .271946191788D-06
      .949632524052D+00  .274031250000D+03  .109331320607D+01 -.846035240764D-08
      .172864343351D-09  .100000000000D+01  .233300000000D+04  .000000000000D+00
      .200000000000D+01  .000000000000D+00  .558793544769D-08  .800000000000D+01
      .538142000000D+06  .400000000000D+01
C23 2024 09 27 17 00 00 -.844121212140D-03 -.891198226327D-11  .000000000000D+00
      .100000000000D+01  .363437500000D+02  .434696678290D-08 -.202093292968D+01
      .171922147274D-05  .234531122260D-03  .758050009608D-05  .528264661026D+04
      .493200000000D+06 -.651925802231D-08 -.275235512572D+01 -.339932739735D-07
      .944955886554D+00  .197656250000D+03 -.720958614500D+00 -.697743349525D-08
      .207151485834D-09  .000000000000D+00  .977000000000D+03  .000000000000D+00
      .200000000000D+01  .000000000000D+00  .219000000000D-07  .219000000000D-07
      .538128000000D+06  .100000000000D+01
E29 1999 08 29 00 00 00  .000000000000D+00  .000000000000D+00  .000000000000D+00
      .000000000000D+00  .000000000000D+00  .000000000000D+00  .000000000000D+00
      .000000000000D+00  .000000000000D+00  .000000000000D+00  .000000000000D+00
      .000000000000D+00  .000000000000D+00  .000000000000D+00  .000000000000D+00
      .000000000000D+00  .000000000000D+00  .000000000000D+00  .000000000000D+00
      .000000000000D+00  .258000000000D+03  .102500000000D+04  .000000000000D+00
      .000000000000D+00  .160000000000D+02  .000000000000D+00  .000000000000D+00
      .791616542000D+09  .000000000000D+00
G26 2024 09 27 13 59 44  .693192705512D-04 -.886757334229D-11  .000000000000D+00
      .200000000000D+01  .303437500000D+02  .539236747089D-08  .243011027820D+01
      .146776437759D-05  .925387057941D-02  .569410622120D-05  .515369906044D+04
      .482384000000D+06 -.111758708954D-06 -.228868130213D+01 -.122934579849D-06
      .930448441027D+00  .255156250000D+03  .556714404018D+00 -.841320758672D-08
      .700029159024D-10  .100000000000D+01  .233300000000D+04  .000000000000D+00
      .200000000000D+01  .000000000000D+00  .651925802231D-08  .200000000000D+01
      .538143000000D+06  .400000000000D+01
C24 2024 09 27 12 00 00  .816921354271D-03 -.112825304655D-10  .000000000000D+00
      .100000000000D+01  .414687500000D+02  .420910389750D-08  .208585271070D+01
      .200839713216D-05  .656013260596D-03  .742403790355D-05  .528263647461D+04
      .475200000000D+06 -.465661287308D-09 -.275241629033D+01 -.339932739735D-07
      .944945344767D+00  .203390625000D+03  .594540689120D+00 -.695850413534D-08
      .313227332890D-09  .000000000000D+00  .977000000000D+03  .000000000000D+00
      .200000000000D+01  .000000000000D+00  .390000000000D-08  .390000000000D-08
      .538129000000D+06  .100000000000D+01
E30 1999 08 29 00 00 00  .000000000000D+00  .000000000000D+00  .000000000000D+00
      .000000000000D+00  .000000000000D+00  .000000000000D+00  .000000000000D+00
      .000000000000D+00  .000000000000D+00  .000000000000D+00  .000000000000D+00
      .000000000000D+00  .000000000000D+00  .000000000000D+00  .000000000000D+00
      .000000000000D+00  .000000000000D+00  .000000000000D+00  .000000000000D+00
      .000000000000D+00  .258000000000D+03  .102500000000D+04  .000000000000D+00
      .000000000000D+00  .160000000000D+02  .000000000000D+00  .000000000000D+00
      .791616543000D+09  .000000000000D+00
